{"fetched_at":"2026-07-08T17:59:23.476Z","source":"https://celestrak.org/NORAD/elements/gp.php?GROUP=kuiper&FORMAT=JSON","constellation":"kuiper","records":[{"OBJECT_NAME":"KUIPER-00294","OBJECT_ID":"2026-072X","EPOCH":"2026-07-08T12:00:02.000160","CLASSIFICATION_TYPE":"U","MEAN_MOTION":14.79265623,"ECCENTRICITY":0.0001911,"INCLINATION":51.8979,"RA_OF_ASC_NODE":81.3722,"ARG_OF_PERICENTER":348.5509,"MEAN_ANOMALY":112.4829,"EPHEMERIS_TYPE":0,"NORAD_CAT_ID":68594,"ELEMENT_SET_NO":999,"REV_AT_EPOCH":544,"BSTAR":-0.0035402,"MEAN_MOTION_DOT":-0.00026679,"MEAN_MOTION_DDOT":0},{"OBJECT_NAME":"KUIPER-00296","OBJECT_ID":"2026-072Y","EPOCH":"2026-07-08T09:25:35.174208","CLASSIFICATION_TYPE":"U","MEAN_MOTION":15.38198314,"ECCENTRICITY":0.0009448,"INCLINATION":51.871,"RA_OF_ASC_NODE":74.2761,"ARG_OF_PERICENTER":99.1595,"MEAN_ANOMALY":261.0461,"EPHEMERIS_TYPE":0,"NORAD_CAT_ID":68595,"ELEMENT_SET_NO":999,"REV_AT_EPOCH":1464,"BSTAR":-0.0068832,"MEAN_MOTION_DOT":-0.00255344,"MEAN_MOTION_DDOT":0},{"OBJECT_NAME":"KUIPER-00297","OBJECT_ID":"2026-072Z","EPOCH":"2026-07-08T11:11:43.215360","CLASSIFICATION_TYPE":"U","MEAN_MOTION":14.76354775,"ECCENTRICITY":0.0001211,"INCLINATION":51.9005,"RA_OF_ASC_NODE":93.6367,"ARG_OF_PERICENTER":123.6385,"MEAN_ANOMALY":236.4691,"EPHEMERIS_TYPE":0,"NORAD_CAT_ID":68596,"ELEMENT_SET_NO":999,"REV_AT_EPOCH":1438,"BSTAR":0.00029926,"MEAN_MOTION_DOT":0.00001883,"MEAN_MOTION_DDOT":0},{"OBJECT_NAME":"KUIPER-00300","OBJECT_ID":"2026-072AA","EPOCH":"2026-07-08T11:00:46.323072","CLASSIFICATION_TYPE":"U","MEAN_MOTION":14.76470875,"ECCENTRICITY":0.0001908,"INCLINATION":51.9034,"RA_OF_ASC_NODE":90.7327,"ARG_OF_PERICENTER":116.9981,"MEAN_ANOMALY":243.1175,"EPHEMERIS_TYPE":0,"NORAD_CAT_ID":68597,"ELEMENT_SET_NO":999,"REV_AT_EPOCH":1442,"BSTAR":0.00030065,"MEAN_MOTION_DOT":0.00001898,"MEAN_MOTION_DDOT":0},{"OBJECT_NAME":"KUIPER-00301","OBJECT_ID":"2026-072AB","EPOCH":"2026-07-08T09:29:47.576256","CLASSIFICATION_TYPE":"U","MEAN_MOTION":15.38624309,"ECCENTRICITY":0.0009888,"INCLINATION":51.8653,"RA_OF_ASC_NODE":74.2481,"ARG_OF_PERICENTER":100.771,"MEAN_ANOMALY":259.4391,"EPHEMERIS_TYPE":0,"NORAD_CAT_ID":68598,"ELEMENT_SET_NO":999,"REV_AT_EPOCH":1464,"BSTAR":0.00067605,"MEAN_MOTION_DOT":0.00025928,"MEAN_MOTION_DDOT":0},{"OBJECT_NAME":"KUIPER-00304","OBJECT_ID":"2026-072AC","EPOCH":"2026-07-08T09:48:37.101600","CLASSIFICATION_TYPE":"U","MEAN_MOTION":15.38431879,"ECCENTRICITY":0.0011693,"INCLINATION":51.866,"RA_OF_ASC_NODE":74.3474,"ARG_OF_PERICENTER":99.6634,"MEAN_ANOMALY":260.5675,"EPHEMERIS_TYPE":0,"NORAD_CAT_ID":68599,"ELEMENT_SET_NO":999,"REV_AT_EPOCH":1464,"BSTAR":0.00060711,"MEAN_MOTION_DOT":0.00023101,"MEAN_MOTION_DDOT":0},{"OBJECT_NAME":"KUIPER-00317","OBJECT_ID":"2026-072AD","EPOCH":"2026-07-08T12:00:02.000160","CLASSIFICATION_TYPE":"U","MEAN_MOTION":14.79895,"ECCENTRICITY":0.0000641,"INCLINATION":51.8978,"RA_OF_ASC_NODE":81.4197,"ARG_OF_PERICENTER":87.6164,"MEAN_ANOMALY":175.2147,"EPHEMERIS_TYPE":0,"NORAD_CAT_ID":68600,"ELEMENT_SET_NO":999,"REV_AT_EPOCH":510,"BSTAR":0.0034572,"MEAN_MOTION_DOT":0.00026214,"MEAN_MOTION_DDOT":0},{"OBJECT_NAME":"KUIPER-00320","OBJECT_ID":"2026-072AE","EPOCH":"2026-07-08T10:41:12.288768","CLASSIFICATION_TYPE":"U","MEAN_MOTION":14.79908392,"ECCENTRICITY":0.0000757,"INCLINATION":51.9019,"RA_OF_ASC_NODE":86.6489,"ARG_OF_PERICENTER":114.2952,"MEAN_ANOMALY":245.8089,"EPHEMERIS_TYPE":0,"NORAD_CAT_ID":68601,"ELEMENT_SET_NO":999,"REV_AT_EPOCH":1447,"BSTAR":0.00031217,"MEAN_MOTION_DOT":0.00002158,"MEAN_MOTION_DDOT":0},{"OBJECT_NAME":"KUIPER-00299","OBJECT_ID":"2026-095A","EPOCH":"2026-07-08T07:38:01.432032","CLASSIFICATION_TYPE":"U","MEAN_MOTION":14.76467286,"ECCENTRICITY":0.0001433,"INCLINATION":51.8989,"RA_OF_ASC_NODE":155.6185,"ARG_OF_PERICENTER":243.092,"MEAN_ANOMALY":116.9895,"EPHEMERIS_TYPE":0,"NORAD_CAT_ID":68864,"ELEMENT_SET_NO":999,"REV_AT_EPOCH":1076,"BSTAR":0.000227,"MEAN_MOTION_DOT":0.0000138,"MEAN_MOTION_DDOT":0},{"OBJECT_NAME":"KUIPER-00353","OBJECT_ID":"2026-095B","EPOCH":"2026-07-08T12:00:02.000160","CLASSIFICATION_TYPE":"U","MEAN_MOTION":14.96079567,"ECCENTRICITY":0.0003301,"INCLINATION":51.8957,"RA_OF_ASC_NODE":141.8515,"ARG_OF_PERICENTER":48.5715,"MEAN_ANOMALY":330.944,"EPHEMERIS_TYPE":0,"NORAD_CAT_ID":68865,"ELEMENT_SET_NO":999,"REV_AT_EPOCH":558,"BSTAR":-0.010147,"MEAN_MOTION_DOT":-0.0011367,"MEAN_MOTION_DDOT":0},{"OBJECT_NAME":"KUIPER-00357","OBJECT_ID":"2026-095C","EPOCH":"2026-07-07T06:19:32.020320","CLASSIFICATION_TYPE":"U","MEAN_MOTION":14.79997302,"ECCENTRICITY":0.00008347,"INCLINATION":51.9001,"RA_OF_ASC_NODE":154.3802,"ARG_OF_PERICENTER":51.0556,"MEAN_ANOMALY":309.048,"EPHEMERIS_TYPE":0,"NORAD_CAT_ID":68866,"ELEMENT_SET_NO":999,"REV_AT_EPOCH":1069,"BSTAR":0.00029534476,"MEAN_MOTION_DOT":0.00002034,"MEAN_MOTION_DDOT":0},{"OBJECT_NAME":"KUIPER-00364","OBJECT_ID":"2026-095D","EPOCH":"2026-07-08T07:22:46.914816","CLASSIFICATION_TYPE":"U","MEAN_MOTION":14.79881031,"ECCENTRICITY":0.0001653,"INCLINATION":51.9018,"RA_OF_ASC_NODE":152.2703,"ARG_OF_PERICENTER":137.3683,"MEAN_ANOMALY":222.7408,"EPHEMERIS_TYPE":0,"NORAD_CAT_ID":68867,"ELEMENT_SET_NO":999,"REV_AT_EPOCH":1081,"BSTAR":0.00015408,"MEAN_MOTION_DOT":0.00000952,"MEAN_MOTION_DDOT":0},{"OBJECT_NAME":"KUIPER-00375","OBJECT_ID":"2026-095E","EPOCH":"2026-07-08T12:00:02.000160","CLASSIFICATION_TYPE":"U","MEAN_MOTION":14.87168241,"ECCENTRICITY":0.0004093,"INCLINATION":51.8982,"RA_OF_ASC_NODE":143.3703,"ARG_OF_PERICENTER":29.3818,"MEAN_ANOMALY":328.3311,"EPHEMERIS_TYPE":0,"NORAD_CAT_ID":68868,"ELEMENT_SET_NO":999,"REV_AT_EPOCH":481,"BSTAR":-0.0083733,"MEAN_MOTION_DOT":-0.00075459,"MEAN_MOTION_DDOT":0},{"OBJECT_NAME":"KUIPER-00433","OBJECT_ID":"2026-095F","EPOCH":"2026-07-07T07:41:53.792736","CLASSIFICATION_TYPE":"U","MEAN_MOTION":14.79926492,"ECCENTRICITY":0.00008215,"INCLINATION":51.8988,"RA_OF_ASC_NODE":164.1287,"ARG_OF_PERICENTER":70.8404,"MEAN_ANOMALY":289.2647,"EPHEMERIS_TYPE":0,"NORAD_CAT_ID":68869,"ELEMENT_SET_NO":999,"REV_AT_EPOCH":1056,"BSTAR":0.00031248661,"MEAN_MOTION_DOT":0.00002161,"MEAN_MOTION_DDOT":0},{"OBJECT_NAME":"KUIPER-00437","OBJECT_ID":"2026-095G","EPOCH":"2026-07-08T06:32:59.384256","CLASSIFICATION_TYPE":"U","MEAN_MOTION":15.38479545,"ECCENTRICITY":0.000848,"INCLINATION":51.8778,"RA_OF_ASC_NODE":140.3864,"ARG_OF_PERICENTER":29.1531,"MEAN_ANOMALY":330.9929,"EPHEMERIS_TYPE":0,"NORAD_CAT_ID":68870,"ELEMENT_SET_NO":999,"REV_AT_EPOCH":1097,"BSTAR":0.00063841,"MEAN_MOTION_DOT":0.0002433,"MEAN_MOTION_DDOT":0},{"OBJECT_NAME":"KUIPER-00448","OBJECT_ID":"2026-095H","EPOCH":"2026-07-08T06:17:49.314048","CLASSIFICATION_TYPE":"U","MEAN_MOTION":14.76425794,"ECCENTRICITY":0.0001613,"INCLINATION":51.9019,"RA_OF_ASC_NODE":148.063,"ARG_OF_PERICENTER":152.4466,"MEAN_ANOMALY":207.658,"EPHEMERIS_TYPE":0,"NORAD_CAT_ID":68871,"ELEMENT_SET_NO":999,"REV_AT_EPOCH":1086,"BSTAR":0.00020743,"MEAN_MOTION_DOT":0.00001241,"MEAN_MOTION_DDOT":0},{"OBJECT_NAME":"KUIPER-00459","OBJECT_ID":"2026-095J","EPOCH":"2026-07-08T12:00:02.000160","CLASSIFICATION_TYPE":"U","MEAN_MOTION":15.28279035,"ECCENTRICITY":0.0010267,"INCLINATION":51.8726,"RA_OF_ASC_NODE":140.4735,"ARG_OF_PERICENTER":32.2898,"MEAN_ANOMALY":242.0295,"EPHEMERIS_TYPE":0,"NORAD_CAT_ID":68872,"ELEMENT_SET_NO":999,"REV_AT_EPOCH":548,"BSTAR":-0.00098938,"MEAN_MOTION_DOT":-0.00027947,"MEAN_MOTION_DDOT":0},{"OBJECT_NAME":"KUIPER-00468","OBJECT_ID":"2026-095K","EPOCH":"2026-07-08T12:00:02.000160","CLASSIFICATION_TYPE":"U","MEAN_MOTION":15.32061502,"ECCENTRICITY":0.0005005,"INCLINATION":51.8829,"RA_OF_ASC_NODE":139.3671,"ARG_OF_PERICENTER":7.2272,"MEAN_ANOMALY":147.4712,"EPHEMERIS_TYPE":0,"NORAD_CAT_ID":68873,"ELEMENT_SET_NO":999,"REV_AT_EPOCH":543,"BSTAR":-0.073085,"MEAN_MOTION_DOT":-0.02072533,"MEAN_MOTION_DDOT":0},{"OBJECT_NAME":"KUIPER-00476","OBJECT_ID":"2026-095L","EPOCH":"2026-07-07T07:34:50.003328","CLASSIFICATION_TYPE":"U","MEAN_MOTION":15.34520599,"ECCENTRICITY":0.00091753,"INCLINATION":51.8726,"RA_OF_ASC_NODE":145.914,"ARG_OF_PERICENTER":21.6444,"MEAN_ANOMALY":338.4928,"EPHEMERIS_TYPE":0,"NORAD_CAT_ID":68874,"ELEMENT_SET_NO":999,"REV_AT_EPOCH":1081,"BSTAR":0.00037614339,"MEAN_MOTION_DOT":0.00012424,"MEAN_MOTION_DDOT":0},{"OBJECT_NAME":"KUIPER-00478","OBJECT_ID":"2026-095M","EPOCH":"2026-07-08T12:00:02.000160","CLASSIFICATION_TYPE":"U","MEAN_MOTION":15.13270552,"ECCENTRICITY":0.00085,"INCLINATION":51.883,"RA_OF_ASC_NODE":140.4686,"ARG_OF_PERICENTER":30.2786,"MEAN_ANOMALY":294.9159,"EPHEMERIS_TYPE":0,"NORAD_CAT_ID":68875,"ELEMENT_SET_NO":999,"REV_AT_EPOCH":559,"BSTAR":-0.10783,"MEAN_MOTION_DOT":-0.01774578,"MEAN_MOTION_DDOT":0},{"OBJECT_NAME":"KUIPER-00480","OBJECT_ID":"2026-095N","EPOCH":"2026-07-08T12:00:02.000160","CLASSIFICATION_TYPE":"U","MEAN_MOTION":15.27261966,"ECCENTRICITY":0.0005959,"INCLINATION":51.8789,"RA_OF_ASC_NODE":139.5474,"ARG_OF_PERICENTER":13.2609,"MEAN_ANOMALY":36.9405,"EPHEMERIS_TYPE":0,"NORAD_CAT_ID":68876,"ELEMENT_SET_NO":999,"REV_AT_EPOCH":558,"BSTAR":-0.085365,"MEAN_MOTION_DOT":-0.02084344,"MEAN_MOTION_DDOT":0},{"OBJECT_NAME":"KUIPER-00482","OBJECT_ID":"2026-095P","EPOCH":"2026-07-08T12:00:02.000160","CLASSIFICATION_TYPE":"U","MEAN_MOTION":14.76426932,"ECCENTRICITY":0.0000935,"INCLINATION":51.8991,"RA_OF_ASC_NODE":146.0015,"ARG_OF_PERICENTER":218.055,"MEAN_ANOMALY":270.9193,"EPHEMERIS_TYPE":0,"NORAD_CAT_ID":68877,"ELEMENT_SET_NO":999,"REV_AT_EPOCH":312,"BSTAR":-0.0040325,"MEAN_MOTION_DOT":-0.00028392,"MEAN_MOTION_DDOT":0},{"OBJECT_NAME":"KUIPER-00483","OBJECT_ID":"2026-095Q","EPOCH":"2026-07-08T07:54:52.279200","CLASSIFICATION_TYPE":"U","MEAN_MOTION":14.7651312,"ECCENTRICITY":0.0001596,"INCLINATION":51.8973,"RA_OF_ASC_NODE":159.2576,"ARG_OF_PERICENTER":219.3779,"MEAN_ANOMALY":140.7066,"EPHEMERIS_TYPE":0,"NORAD_CAT_ID":68878,"ELEMENT_SET_NO":999,"REV_AT_EPOCH":1071,"BSTAR":0.00020705,"MEAN_MOTION_DOT":0.00001241,"MEAN_MOTION_DDOT":0}]}
